{
    "links": {
        "self": "http://www.neowsapp.com/rest/v1/neo/3466628?api_key=iIulBulltgU6a56xZRHN4H3l9WmuAYTsLGpBGhQ2"
    },
    "id": "3466628",
    "neo_reference_id": "3466628",
    "name": "(2009 QH34)",
    "designation": "2009 QH34",
    "nasa_jpl_url": "http://ssd.jpl.nasa.gov/sbdb.cgi?sstr=3466628",
    "absolute_magnitude_h": 24.9,
    "estimated_diameter": {
        "kilometers": {
            "estimated_diameter_min": 0.0278326768,
            "estimated_diameter_max": 0.0622357573
        },
        "meters": {
            "estimated_diameter_min": 27.8326768072,
            "estimated_diameter_max": 62.2357573367
        },
        "miles": {
            "estimated_diameter_min": 0.0172944182,
            "estimated_diameter_max": 0.0386714948
        },
        "feet": {
            "estimated_diameter_min": 91.3145593761,
            "estimated_diameter_max": 204.1855621004
        }
    },
    "is_potentially_hazardous_asteroid": false,
    "close_approach_data": [
        {
            "close_approach_date": "1995-08-04",
            "close_approach_date_full": "1995-Aug-04 10:31",
            "epoch_date_close_approach": 807532260000,
            "relative_velocity": {
                "kilometers_per_second": "11.5307916517",
                "kilometers_per_hour": "41510.8499462932",
                "miles_per_hour": "25793.2278457953"
            },
            "miss_distance": {
                "astronomical": "0.1248059423",
                "lunar": "48.5495115547",
                "kilometers": "18670703.131422901",
                "miles": "11601436.9600859938"
            },
            "orbiting_body": "Earth"
        },
        {
            "close_approach_date": "2009-08-30",
            "close_approach_date_full": "2009-Aug-30 19:38",
            "epoch_date_close_approach": 1251661080000,
            "relative_velocity": {
                "kilometers_per_second": "7.8632163862",
                "kilometers_per_hour": "28307.5789902537",
                "miles_per_hour": "17589.2287342496"
            },
            "miss_distance": {
                "astronomical": "0.0112516179",
                "lunar": "4.3768793631",
                "kilometers": "1683218.071893873",
                "miles": "1045903.2106985274"
            },
            "orbiting_body": "Earth"
        },
        {
            "close_approach_date": "2016-07-21",
            "close_approach_date_full": "2016-Jul-21 22:46",
            "epoch_date_close_approach": 1469141160000,
            "relative_velocity": {
                "kilometers_per_second": "16.2913943997",
                "kilometers_per_hour": "58649.0198389776",
                "miles_per_hour": "36442.2201327247"
            },
            "miss_distance": {
                "astronomical": "0.2728253578",
                "lunar": "106.1290641842",
                "kilometers": "40814092.408867886",
                "miles": "25360701.0315373868"
            },
            "orbiting_body": "Earth"
        }
    ],
    "orbital_data": {
        "orbit_id": "12",
        "orbit_determination_date": "2017-04-06 09:00:10",
        "first_observation_date": "2009-08-28",
        "last_observation_date": "2009-09-15",
        "data_arc_in_days": 18,
        "observations_used": 104,
        "orbit_uncertainty": "6",
        "minimum_orbit_intersection": ".00435662",
        "jupiter_tisserand_invariant": "3.368",
        "epoch_osculation": "2459000.5",
        "eccentricity": ".5599483660075362",
        "semi_major_axis": "2.292284193315872",
        "inclination": "3.070150608147186",
        "ascending_node_longitude": "160.9886127247793",
        "orbital_period": "1267.65512451195",
        "perihelion_distance": "1.008723404843746",
        "perihelion_argument": "189.0287624846092",
        "aphelion_distance": "3.575844981787997",
        "perihelion_time": "2458889.437857495338",
        "mean_anomaly": "31.54041704921256",
        "mean_motion": ".2839889123144601",
        "equinox": "J2000",
        "orbit_class": {
            "orbit_class_type": "APO",
            "orbit_class_description": "Near-Earth asteroid orbits which cross the Earth’s orbit similar to that of 1862 Apollo",
            "orbit_class_range": "a (semi-major axis) > 1.0 AU; q (perihelion) < 1.017 AU"
        }
    },
    "is_sentry_object": false
}